[{"OBJECT_NAME":"YAOGAN-43 01F","OBJECT_ID":"2024-148F","EPOCH":"2026-03-10T00:23:08.877408","MEAN_MOTION":15.29824616,"ECCENTRICITY":0.00057048,"INCLINATION":34.9925,"RA_OF_ASC_NODE":59.8891,"ARG_OF_PERICENTER":18.4862,"MEAN_ANOMALY":341.6062,"EPHEMERIS_TYPE":0,"CLASSIFICATION_TYPE":"U","NORAD_CAT_ID":60463,"ELEMENT_SET_NO":999,"REV_AT_EPOCH":8707,"BSTAR":0.00058388219,"MEAN_MOTION_DOT":0.00017308,"MEAN_MOTION_DDOT":0},{"OBJECT_NAME":"STARLINK-34767","OBJECT_ID":"2025-263Y","EPOCH":"2026-03-09T03:36:45.055872","MEAN_MOTION":15.2760283,"ECCENTRICITY":6.635e-5,"INCLINATION":43.0096,"RA_OF_ASC_NODE":353.9748,"ARG_OF_PERICENTER":347.3521,"MEAN_ANOMALY":12.7314,"EPHEMERIS_TYPE":0,"CLASSIFICATION_TYPE":"U","NORAD_CAT_ID":66507,"ELEMENT_SET_NO":999,"REV_AT_EPOCH":1881,"BSTAR":0.0011370344,"MEAN_MOTION_DOT":0.0003118,"MEAN_MOTION_DDOT":0}]
